{
  "norad_id": 67378,
  "name": "AETHER-7",
  "history": [
    {
      "epoch": "2026-03-28T22:48:26.845344",
      "apogee_km": 608.9975888876052,
      "perigee_km": 600.3821770793802,
      "latitude_deg": 11.68635613532472,
      "longitude_deg": -70.97017183993012,
      "semi_major_axis_km": 6982.826882983492,
      "eccentricity": 0.0006169,
      "inclination_deg": 97.8013,
      "raan_deg": 87.8312,
      "arg_perigee_deg": 52.8237,
      "mean_anomaly_deg": 307.3542,
      "mean_motion_rev_day": 14.87838694
    }
  ]
}